{
 "generated_at": "2026-07-15T07:14:44Z",
 "sources": [
  {
   "name": "CelesTrak",
   "url": "https://celestrak.org/NORAD/elements/",
   "license": "frei verfügbar; Attribution. Ursprünglich USSPACECOM/Space-Track."
  },
  {
   "name": "GCAT (J. McDowell, planet4589.org)",
   "url": "https://planet4589.org/space/gcat/",
   "license": "CC-BY 4.0"
  }
 ],
 "satellites": [
  {
   "norad": 33321,
   "name": "HUANJING 1B (HJ-1B)",
   "intl": "2008-041B",
   "group": "resource",
   "gcat": {
    "class": null,
    "category": null,
    "owner": null,
    "state": null
   },
   "omm": {
    "OBJECT_NAME": "HUANJING 1B (HJ-1B)",
    "OBJECT_ID": "2008-041B",
    "EPOCH": "2026-07-14T23:52:59.797920",
    "MEAN_MOTION": 14.83365775,
    "ECCENTRICITY": 0.00379437,
    "INCLINATION": 97.6526,
    "RA_OF_ASC_NODE": 183.8478,
    "ARG_OF_PERICENTER": 91.893,
    "MEAN_ANOMALY": 268.663,
    "EPHEMERIS_TYPE": 0,
    "CLASSIFICATION_TYPE": "U",
    "NORAD_CAT_ID": 33321,
    "ELEMENT_SET_NO": 999,
    "REV_AT_EPOCH": 96253,
    "BSTAR": 0.00010300486,
    "MEAN_MOTION_DOT": 0.00000803,
    "MEAN_MOTION_DDOT": 0
   }
  },
  {
   "norad": 43719,
   "name": "HYSIS",
   "intl": "2018-096A",
   "group": "resource",
   "gcat": {
    "class": "C",
    "category": "IMG",
    "owner": "ISRO",
    "state": "IN"
   },
   "omm": {
    "OBJECT_NAME": "HYSIS",
    "OBJECT_ID": "2018-096A",
    "EPOCH": "2026-07-14T22:57:10.636704",
    "MEAN_MOTION": 14.78671075,
    "ECCENTRICITY": 0.00018468,
    "INCLINATION": 97.9836,
    "RA_OF_ASC_NODE": 262.4846,
    "ARG_OF_PERICENTER": 84.0517,
    "MEAN_ANOMALY": 276.0905,
    "EPHEMERIS_TYPE": 0,
    "CLASSIFICATION_TYPE": "U",
    "NORAD_CAT_ID": 43719,
    "ELEMENT_SET_NO": 999,
    "REV_AT_EPOCH": 41152,
    "BSTAR": 0.00012876245,
    "MEAN_MOTION_DOT": 0.00000892,
    "MEAN_MOTION_DDOT": 0
   }
  },
  {
   "norad": 43613,
   "name": "ICESAT-2",
   "intl": "2018-070A",
   "group": "resource",
   "gcat": {
    "class": "C",
    "category": "SCI",
    "owner": "GSFC",
    "state": "US"
   },
   "omm": {
    "OBJECT_NAME": "ICESAT-2",
    "OBJECT_ID": "2018-070A",
    "EPOCH": "2026-07-14T20:28:01.344576",
    "MEAN_MOTION": 15.2817365,
    "ECCENTRICITY": 0.0005728,
    "INCLINATION": 92.0097,
    "RA_OF_ASC_NODE": 298.455,
    "ARG_OF_PERICENTER": 59.8427,
    "MEAN_ANOMALY": 300.3389,
    "EPHEMERIS_TYPE": 0,
    "CLASSIFICATION_TYPE": "U",
    "NORAD_CAT_ID": 43613,
    "ELEMENT_SET_NO": 999,
    "REV_AT_EPOCH": 43668,
    "BSTAR": 0.00018340681,
    "MEAN_MOTION_DOT": 0.00005037,
    "MEAN_MOTION_DDOT": 0
   }
  },
  {
   "norad": 43800,
   "name": "ICEYE-X2",
   "intl": "2018-099AU",
   "group": "sar",
   "gcat": {
    "class": "B",
    "category": "IMG-R",
    "owner": "ICEYE",
    "state": "FI"
   },
   "omm": {
    "OBJECT_NAME": "ICEYE-X2",
    "OBJECT_ID": "2018-099AU",
    "EPOCH": "2026-07-14T23:04:04.740672",
    "MEAN_MOTION": 15.18038095,
    "ECCENTRICITY": 0.00097361,
    "INCLINATION": 97.4346,
    "RA_OF_ASC_NODE": 249.3157,
    "ARG_OF_PERICENTER": 196.524,
    "MEAN_ANOMALY": 163.5678,
    "EPHEMERIS_TYPE": 0,
    "CLASSIFICATION_TYPE": "U",
    "NORAD_CAT_ID": 43800,
    "ELEMENT_SET_NO": 999,
    "REV_AT_EPOCH": 41703,
    "BSTAR": 0.00016517112,
    "MEAN_MOTION_DOT": 0.00003298,
    "MEAN_MOTION_DDOT": 0
   }
  },
  {
   "norad": 55049,
   "name": "ICEYE-X21",
   "intl": "2023-001AS",
   "group": "sar",
   "gcat": {
    "class": "B",
    "category": "IMG-R",
    "owner": "ICEYE",
    "state": "FI"
   },
   "omm": {
    "OBJECT_NAME": "ICEYE-X21",
    "OBJECT_ID": "2023-001AS",
    "EPOCH": "2026-06-24T05:11:18.420288",
    "MEAN_MOTION": 16.24069885,
    "ECCENTRICITY": 0.00123774,
    "INCLINATION": 97.3001,
    "RA_OF_ASC_NODE": 262.6152,
    "ARG_OF_PERICENTER": 285.9702,
    "MEAN_ANOMALY": 74.0225,
    "EPHEMERIS_TYPE": 0,
    "CLASSIFICATION_TYPE": "U",
    "NORAD_CAT_ID": 55049,
    "ELEMENT_SET_NO": 999,
    "REV_AT_EPOCH": 19475,
    "BSTAR": 0.000602142,
    "MEAN_MOTION_DOT": 0.01585954,
    "MEAN_MOTION_DDOT": 0.000002396838
   }
  },
  {
   "norad": 56963,
   "name": "ICEYE-X25",
   "intl": "2023-084AH",
   "group": "sar",
   "gcat": {
    "class": "B",
    "category": "IMG-R",
    "owner": "ICEYE",
    "state": "FI"
   },
   "omm": {
    "OBJECT_NAME": "ICEYE-X25",
    "OBJECT_ID": "2023-084AH",
    "EPOCH": "2026-07-14T22:22:38.631648",
    "MEAN_MOTION": 15.62808585,
    "ECCENTRICITY": 0.00042803,
    "INCLINATION": 97.5909,
    "RA_OF_ASC_NODE": 344.1494,
    "ARG_OF_PERICENTER": 186.1873,
    "MEAN_ANOMALY": 173.9332,
    "EPHEMERIS_TYPE": 0,
    "CLASSIFICATION_TYPE": "U",
    "NORAD_CAT_ID": 56963,
    "ELEMENT_SET_NO": 999,
    "REV_AT_EPOCH": 17230,
    "BSTAR": 0.00033706207,
    "MEAN_MOTION_DOT": 0.00030282,
    "MEAN_MOTION_DDOT": 0
   }
  },
  {
   "norad": 58288,
   "name": "ICEYE-X31",
   "intl": "2023-174AJ",
   "group": "sar",
   "gcat": {
    "class": "B",
    "category": "IMG-R",
    "owner": "ICEYE",
    "state": "FI"
   },
   "omm": {
    "OBJECT_NAME": "ICEYE-X31",
    "OBJECT_ID": "2023-174AJ",
    "EPOCH": "2026-07-14T23:26:31.982784",
    "MEAN_MOTION": 15.35173413,
    "ECCENTRICITY": 0.00026851,
    "INCLINATION": 97.3777,
    "RA_OF_ASC_NODE": 271.7244,
    "ARG_OF_PERICENTER": 186.5548,
    "MEAN_ANOMALY": 173.5661,
    "EPHEMERIS_TYPE": 0,
    "CLASSIFICATION_TYPE": "U",
    "NORAD_CAT_ID": 58288,
    "ELEMENT_SET_NO": 999,
    "REV_AT_EPOCH": 14901,
    "BSTAR": 0.00030757379,
    "MEAN_MOTION_DOT": 0.00010424,
    "MEAN_MOTION_DDOT": 0
   }
  },
  {
   "norad": 60548,
   "name": "ICEYE-X33",
   "intl": "2024-149CJ",
   "group": "sar",
   "gcat": {
    "class": "B",
    "category": "IMG-R",
    "owner": "ICEUS/ICEYE",
    "state": "US"
   },
   "omm": {
    "OBJECT_NAME": "ICEYE-X33",
    "OBJECT_ID": "2024-149CJ",
    "EPOCH": "2026-07-14T18:28:32.706336",
    "MEAN_MOTION": 15.00882745,
    "ECCENTRICITY": 0.00018733,
    "INCLINATION": 97.7366,
    "RA_OF_ASC_NODE": 274.772,
    "ARG_OF_PERICENTER": 75.6898,
    "MEAN_ANOMALY": 284.4534,
    "EPHEMERIS_TYPE": 0,
    "CLASSIFICATION_TYPE": "U",
    "NORAD_CAT_ID": 60548,
    "ELEMENT_SET_NO": 999,
    "REV_AT_EPOCH": 10434,
    "BSTAR": 0.00023057574,
    "MEAN_MOTION_DOT": 0.00002874,
    "MEAN_MOTION_DDOT": 0
   }
  },
  {
   "norad": 58294,
   "name": "ICEYE-X34",
   "intl": "2023-174AQ",
   "group": "sar",
   "gcat": {
    "class": "B",
    "category": "IMG-R",
    "owner": "ICEUS",
    "state": "US"
   },
   "omm": {
    "OBJECT_NAME": "ICEYE-X34",
    "OBJECT_ID": "2023-174AQ",
    "EPOCH": "2026-07-14T19:28:45.150816",
    "MEAN_MOTION": 15.71211377,
    "ECCENTRICITY": 0.00017156,
    "INCLINATION": 97.387,
    "RA_OF_ASC_NODE": 288.4542,
    "ARG_OF_PERICENTER": 217.3845,
    "MEAN_ANOMALY": 142.7298,
    "EPHEMERIS_TYPE": 0,
    "CLASSIFICATION_TYPE": "U",
    "NORAD_CAT_ID": 58294,
    "ELEMENT_SET_NO": 999,
    "REV_AT_EPOCH": 15007,
    "BSTAR": 0.00085050486,
    "MEAN_MOTION_DOT": 0.00108394,
    "MEAN_MOTION_DDOT": 0
   }
  },
  {
   "norad": 58302,
   "name": "ICEYE-X35",
   "intl": "2023-174AY",
   "group": "sar",
   "gcat": {
    "class": "B",
    "category": "IMG-R",
    "owner": "ICEYE",
    "state": "FI"
   },
   "omm": {
    "OBJECT_NAME": "ICEYE-X35",
    "OBJECT_ID": "2023-174AY",
    "EPOCH": "2026-07-14T22:23:53.084256",
    "MEAN_MOTION": 15.55134758,
    "ECCENTRICITY": 0.00077905,
    "INCLINATION": 97.3793,
    "RA_OF_ASC_NODE": 281.3232,
    "ARG_OF_PERICENTER": 108.5474,
    "MEAN_ANOMALY": 251.6627,
    "EPHEMERIS_TYPE": 0,
    "CLASSIFICATION_TYPE": "U",
    "NORAD_CAT_ID": 58302,
    "ELEMENT_SET_NO": 999,
    "REV_AT_EPOCH": 14965,
    "BSTAR": 0.00047720331,
    "MEAN_MOTION_DOT": 0.00032169,
    "MEAN_MOTION_DDOT": 0
   }
  },
  {
   "norad": 59103,
   "name": "ICEYE-X36",
   "intl": "2024-043F",
   "group": "sar",
   "gcat": {
    "class": "B",
    "category": "IMG-R",
    "owner": "ICEUS",
    "state": "US"
   },
   "omm": {
    "OBJECT_NAME": "ICEYE-X36",
    "OBJECT_ID": "2024-043F",
    "EPOCH": "2026-07-14T22:29:44.547360",
    "MEAN_MOTION": 15.07232046,
    "ECCENTRICITY": 0.00053261,
    "INCLINATION": 97.8399,
    "RA_OF_ASC_NODE": 334.5108,
    "ARG_OF_PERICENTER": 215.4833,
    "MEAN_ANOMALY": 144.604,
    "EPHEMERIS_TYPE": 0,
    "CLASSIFICATION_TYPE": "U",
    "NORAD_CAT_ID": 59103,
    "ELEMENT_SET_NO": 999,
    "REV_AT_EPOCH": 12932,
    "BSTAR": 0.00018734085,
    "MEAN_MOTION_DOT": 0.00002757,
    "MEAN_MOTION_DDOT": 0
   }
  },
  {
   "norad": 59102,
   "name": "ICEYE-X37",
   "intl": "2024-043E",
   "group": "sar",
   "gcat": {
    "class": "B",
    "category": "IMG-R",
    "owner": "ICEUS",
    "state": "US"
   },
   "omm": {
    "OBJECT_NAME": "ICEYE-X37",
    "OBJECT_ID": "2024-043E",
    "EPOCH": "2026-07-14T22:47:39.070464",
    "MEAN_MOTION": 15.06289145,
    "ECCENTRICITY": 0.00138145,
    "INCLINATION": 97.8338,
    "RA_OF_ASC_NODE": 333.3943,
    "ARG_OF_PERICENTER": 275.0328,
    "MEAN_ANOMALY": 84.9321,
    "EPHEMERIS_TYPE": 0,
    "CLASSIFICATION_TYPE": "U",
    "NORAD_CAT_ID": 59102,
    "ELEMENT_SET_NO": 999,
    "REV_AT_EPOCH": 12926,
    "BSTAR": 0.00010788676,
    "MEAN_MOTION_DOT": 0.00001521,
    "MEAN_MOTION_DDOT": 0
   }
  },
  {
   "norad": 59100,
   "name": "ICEYE-X38",
   "intl": "2024-043C",
   "group": "sar",
   "gcat": {
    "class": "B",
    "category": "IMG-R",
    "owner": "ICEYE",
    "state": "FI"
   },
   "omm": {
    "OBJECT_NAME": "ICEYE-X38",
    "OBJECT_ID": "2024-043C",
    "EPOCH": "2026-07-14T23:03:41.870592",
    "MEAN_MOTION": 15.13089584,
    "ECCENTRICITY": 0.00023778,
    "INCLINATION": 97.8436,
    "RA_OF_ASC_NODE": 340.4807,
    "ARG_OF_PERICENTER": 22.1492,
    "MEAN_ANOMALY": 337.9841,
    "EPHEMERIS_TYPE": 0,
    "CLASSIFICATION_TYPE": "U",
    "NORAD_CAT_ID": 59100,
    "ELEMENT_SET_NO": 999,
    "REV_AT_EPOCH": 11587,
    "BSTAR": 0.00014841638,
    "MEAN_MOTION_DOT": 0.00002556,
    "MEAN_MOTION_DDOT": 0
   }
  }
 ]
}
